0 SL-12 DEB
1 35314U 91025AP  13281.68518196  .00013827  00000-0  91057-1 0  8300
2 35314 064.7945 216.8846 5020953 003.1964 359.5847 05.12559503 81875
0 SL-12 DEB
1 35314U 91025AP  13282.94191044  .00025762  00000-0  14224+0 0  8310
2 35314 064.8438 216.3102 5041584 003.5928 157.7629 05.12658573 81930
0 SL-12 DEB
1 35314U 91025AP  13285.78572047  .00027601  00000-0  14755+0 0  8325
2 35314 064.8437 215.0006 5044514 003.5296 006.6275 05.12802023 82089
0 SL-12 DEB
1 35314U 91025AP  13286.75980689  .00030448  00000-0  16178+0 0  8333
2 35314 064.8450 214.5510 5044988 003.4898 004.9298 05.12839289 82136
0 SL-12 DEB
1 35314U 91025AP  13288.91319994  .00031444  00000-0  16344+0 0  8341
2 35314 064.8472 213.5575 5046139 003.5077 020.9036 05.13049088 82241
0 SL-12 DEB
1 35314U 91025AP  13289.88771884  .00028004  00000-0  14634+0 0  8357
2 35314 064.8456 213.1088 5045168 003.5054 020.7075 05.13101921 82295
0 SL-12 DEB
1 35314U 91025AP  13292.80417022  .00030831  00000-0  15811+0 0  8364
2 35314 064.8427 211.7616 5046155 003.4221 008.3188 05.13262208 82446
0 SL-12 DEB
1 35314U 91025AP  13293.77822877  .00030408  00000-0  15411+0 0  8376
2 35314 064.8391 211.3071 5046910 003.4285 008.0973 05.13349632 82497
0 SL-12 DEB
1 35314U 91025AP  13294.75136280  .00029140  00000-0  14643+0 0  8389
2 35314 064.8367 210.8566 5047272 003.4409 006.3933 05.13440836 82544
